[{"OBJECT_NAME":"STARLINK-6067","OBJECT_ID":"2023-078BB","EPOCH":"2026-03-09T23:48:08.788896","MEAN_MOTION":14.983264,"ECCENTRICITY":0.00026539,"INCLINATION":70.0005,"RA_OF_ASC_NODE":323.4976,"ARG_OF_PERICENTER":261.3525,"MEAN_ANOMALY":98.7334,"EPHEMERIS_TYPE":0,"CLASSIFICATION_TYPE":"U","NORAD_CAT_ID":56816,"ELEMENT_SET_NO":999,"REV_AT_EPOCH":15322,"BSTAR":9.7884525e-5,"MEAN_MOTION_DOT":1.075e-5,"MEAN_MOTION_DDOT":0},{"OBJECT_NAME":"CZ-6A DEB","OBJECT_ID":"2022-151QF","EPOCH":"2026-03-08T03:18:15.836256","MEAN_MOTION":14.86025729,"ECCENTRICITY":0.00611616,"INCLINATION":98.6168,"RA_OF_ASC_NODE":140.6535,"ARG_OF_PERICENTER":185.9517,"MEAN_ANOMALY":174.0977,"EPHEMERIS_TYPE":0,"CLASSIFICATION_TYPE":"U","NORAD_CAT_ID":54894,"ELEMENT_SET_NO":999,"REV_AT_EPOCH":17291,"BSTAR":0.0053316953,"MEAN_MOTION_DOT":0.00048472,"MEAN_MOTION_DDOT":0}]
